{
    "links": {
        "self": "http://www.neowsapp.com/rest/v1/neo/3368186?api_key=iIulBulltgU6a56xZRHN4H3l9WmuAYTsLGpBGhQ2"
    },
    "id": "3368186",
    "neo_reference_id": "3368186",
    "name": "(2007 CC27)",
    "designation": "2007 CC27",
    "nasa_jpl_url": "http://ssd.jpl.nasa.gov/sbdb.cgi?sstr=3368186",
    "absolute_magnitude_h": 27.0,
    "estimated_diameter": {
        "kilometers": {
            "estimated_diameter_min": 0.0105816886,
            "estimated_diameter_max": 0.023661375
        },
        "meters": {
            "estimated_diameter_min": 10.5816885933,
            "estimated_diameter_max": 23.6613750114
        },
        "miles": {
            "estimated_diameter_min": 0.0065751544,
            "estimated_diameter_max": 0.0147024923
        },
        "feet": {
            "estimated_diameter_min": 34.7168272045,
            "estimated_diameter_max": 77.6291855923
        }
    },
    "is_potentially_hazardous_asteroid": false,
    "close_approach_data": [
        {
            "close_approach_date": "2007-02-11",
            "close_approach_date_full": "2007-Feb-11 12:40",
            "epoch_date_close_approach": 1171197600000,
            "relative_velocity": {
                "kilometers_per_second": "10.9433907169",
                "kilometers_per_hour": "39396.2065806877",
                "miles_per_hour": "24479.270694539"
            },
            "miss_distance": {
                "astronomical": "0.0022109558",
                "lunar": "0.8600618062",
                "kilometers": "330754.278344146",
                "miles": "205521.1784193748"
            },
            "orbiting_body": "Earth"
        },
        {
            "close_approach_date": "2007-02-11",
            "close_approach_date_full": "2007-Feb-11 14:11",
            "epoch_date_close_approach": 1171203060000,
            "relative_velocity": {
                "kilometers_per_second": "11.9214244861",
                "kilometers_per_hour": "42917.1281499341",
                "miles_per_hour": "26667.034432941"
            },
            "miss_distance": {
                "astronomical": "0.0015567233",
                "lunar": "0.6055653637",
                "kilometers": "232882.489859371",
                "miles": "144706.4690704798"
            },
            "orbiting_body": "Moon"
        },
        {
            "close_approach_date": "2035-07-11",
            "close_approach_date_full": "2035-Jul-11 23:35",
            "epoch_date_close_approach": 2067809700000,
            "relative_velocity": {
                "kilometers_per_second": "5.0740189525",
                "kilometers_per_hour": "18266.4682290837",
                "miles_per_hour": "11350.0729948993"
            },
            "miss_distance": {
                "astronomical": "0.1377214439",
                "lunar": "53.5736416771",
                "kilometers": "20602834.660764493",
                "miles": "12802007.8212082834"
            },
            "orbiting_body": "Venus"
        }
    ],
    "orbital_data": {
        "orbit_id": "11",
        "orbit_determination_date": "2017-04-06 09:07:01",
        "first_observation_date": "2007-02-13",
        "last_observation_date": "2007-02-19",
        "data_arc_in_days": 6,
        "observations_used": 29,
        "orbit_uncertainty": "8",
        "minimum_orbit_intersection": ".00109827",
        "jupiter_tisserand_invariant": "4.072",
        "epoch_osculation": "2454148.5",
        "eccentricity": ".4931304529854267",
        "semi_major_axis": "1.688548488490016",
        "inclination": "2.120520206965092",
        "ascending_node_longitude": "324.2523280571864",
        "orbital_period": "801.4357871871694",
        "perihelion_distance": ".8558738074730771",
        "perihelion_argument": "124.9709512666693",
        "aphelion_distance": "2.521223169506956",
        "perihelion_time": "2454104.444501475483",
        "mean_anomaly": "19.78945752409",
        "mean_motion": ".4491938165919769",
        "equinox": "J2000",
        "orbit_class": {
            "orbit_class_type": "APO",
            "orbit_class_description": "Near-Earth asteroid orbits which cross the Earth’s orbit similar to that of 1862 Apollo",
            "orbit_class_range": "a (semi-major axis) > 1.0 AU; q (perihelion) < 1.017 AU"
        }
    },
    "is_sentry_object": false
}